[
  {
    "name": "ONEWEB-0158",
    "noradId": "48054",
    "line1": "1 48054U 21025N   26158.14906519  .00000017  00000+0  12739-4 0  9991",
    "line2": "2 48054  87.8952 322.2159 0001594  89.5283 270.6029 13.13471484252315"
  },
  {
    "name": "ONEWEB-0157",
    "noradId": "48055",
    "line1": "1 48055U 21025P   26158.17444430 -.00000220  00000+0 -63792-3 0  9996",
    "line2": "2 48055  87.8951 322.2165 0001860 107.2056 252.9277 13.13469310252250"
  },
  {
    "name": "ONEWEB-0162",
    "noradId": "48056",
    "line1": "1 48056U 21025Q   26158.15060738  .00000170  00000+0  43010-3 0  9993",
    "line2": "2 48056  87.8950 322.2223 0001971  94.0765 266.0590 13.13468904252227"
  },
  {
    "name": "ONEWEB-0155",
    "noradId": "48057",
    "line1": "1 48057U 21025R   26158.15751076 -.00000013  00000+0 -71657-4 0  9993",
    "line2": "2 48057  87.8952 322.2170 0001683  99.0152 261.1168 13.13468756252363"
  },
  {
    "name": "ONEWEB-0149",
    "noradId": "48058",
    "line1": "1 48058U 21025S   26158.17952229 -.00000320  00000+0 -91134-3 0  9991",
    "line2": "2 48058  87.8958 322.2161 0002067  94.3639 265.7727 13.13469908252175"
  },
  {
    "name": "ONEWEB-0148",
    "noradId": "48059",
    "line1": "1 48059U 21025T   26158.21845937  .00000324  00000+0  85195-3 0  9996",
    "line2": "2 48059  87.8949 322.2159 0002355  97.4330 262.7067 13.13469415252307"
  },
  {
    "name": "ONEWEB-0160",
    "noradId": "48060",
    "line1": "1 48060U 21025U   26158.15920694 -.00000076  00000+0 -24369-3 0  9997",
    "line2": "2 48060  87.8948 322.2236 0001723  69.7062 290.4252 13.13469686252243"
  },
  {
    "name": "ONEWEB-0163",
    "noradId": "48061",
    "line1": "1 48061U 21025V   26158.14397155  .00000262  00000+0  68238-3 0  9995",
    "line2": "2 48061  87.8954 322.2205 0001815 103.7459 256.3873 13.13469986252364"
  },
  {
    "name": "ONEWEB-0159",
    "noradId": "48062",
    "line1": "1 48062U 21025W   26158.21168737  .00000340  00000+0  89694-3 0  9992",
    "line2": "2 48062  87.8956 322.2006 0001776 102.5921 257.5407 13.13470173252291"
  },
  {
    "name": "ONEWEB-0164",
    "noradId": "48063",
    "line1": "1 48063U 21025X   26158.19305939 -.00000027  00000+0 -10756-3 0  9994",
    "line2": "2 48063  87.8955 322.2106 0001773  92.8019 267.3313 13.13470009252279"
  },
  {
    "name": "ONEWEB-0167",
    "noradId": "48064",
    "line1": "1 48064U 21025Y   26158.14480748  .00000324  00000+0  85332-3 0  9992",
    "line2": "2 48064  87.8945 322.2308 0001347 113.8025 246.3245 13.13471389252252"
  },
  {
    "name": "ONEWEB-0166",
    "noradId": "48065",
    "line1": "1 48065U 21025Z   26158.16766113 -.00000271  00000+0 -77574-3 0  9990",
    "line2": "2 48065  87.8956 322.1968 0001978  96.8680 263.2674 13.13470757252334"
  },
  {
    "name": "ONEWEB-0151",
    "noradId": "48066",
    "line1": "1 48066U 21025AA  26157.71228764 -.00000244  00000+0 -70323-3 0  9991",
    "line2": "2 48066  87.8946 322.3049 0001685  96.0575 264.0746 13.13469669252212"
  },
  {
    "name": "ONEWEB-0170",
    "noradId": "48067",
    "line1": "1 48067U 21025AB  26158.17782041 -.00000240  00000+0 -69151-3 0  9999",
    "line2": "2 48067  87.8946 322.2141 0001428  85.9772 274.1520 13.13469736252235"
  },
  {
    "name": "ONEWEB-0168",
    "noradId": "48068",
    "line1": "1 48068U 21025AC  26158.16258621 -.00000140  00000+0 -41903-3 0  9995",
    "line2": "2 48068  87.8954 322.2163 0001865  99.8915 260.2425 13.13468945252249"
  },
  {
    "name": "ONEWEB-0173",
    "noradId": "48069",
    "line1": "1 48069U 21025AD  26158.15412639  .00000052  00000+0  10740-3 0  9991",
    "line2": "2 48069  87.8950 322.2204 0001714 106.8175 253.3142 13.13468893252489"
  },
  {
    "name": "ONEWEB-0171",
    "noradId": "48070",
    "line1": "1 48070U 21025AE  26158.19136896 -.00000372  00000+0 -10530-2 0  9998",
    "line2": "2 48070  87.8959 322.2214 0001711  94.3864 265.7461 13.13472203252306"
  },
  {
    "name": "ONEWEB-0172",
    "noradId": "48071",
    "line1": "1 48071U 21025AF  26157.71398278 -.00000232  00000+0 -67048-3 0  9992",
    "line2": "2 48071  87.8951 322.3051 0001672  98.5629 261.5690 13.13470661253136"
  },
  {
    "name": "ONEWEB-0174",
    "noradId": "48072",
    "line1": "1 48072U 21025AG  26158.00008704  .00000052  00000+0  10798-3 0  9996",
    "line2": "2 48072  87.8952 322.2483 0001942  96.6116 263.5235 13.13469291252498"
  },
  {
    "name": "ONEWEB-0175",
    "noradId": "48073",
    "line1": "1 48073U 21025AH  26157.49730806 -.00000097  00000+0 -30012-3 0  9996",
    "line2": "2 48073  87.8954 322.3322 0001454  94.5026 265.6270 13.13470585252084"
  },
  {
    "name": "ONEWEB-0177",
    "noradId": "48074",
    "line1": "1 48074U 21025AJ  26158.19475504  .00000066  00000+0  14542-3 0  9990",
    "line2": "2 48074  87.8949 322.2120 0001944 101.0422 259.0926 13.13470899252366"
  },
  {
    "name": "ONEWEB-0178",
    "noradId": "48075",
    "line1": "1 48075U 21025AK  26158.21350534  .00000314  00000+0  82444-3 0  9991",
    "line2": "2 48075  87.8942 322.2223 0001560 100.7152 259.4153 13.13471804252413"
  },
  {
    "name": "ONEWEB-0108",
    "noradId": "48076",
    "line1": "1 48076U 21025AL  26158.17274385 -.00000266  00000+0 -76299-3 0  9995",
    "line2": "2 48076  87.8958 322.2070 0001983  89.8092 270.3264 13.13469519252336"
  },
  {
    "name": "ONEWEB-0169",
    "noradId": "48077",
    "line1": "1 48077U 21025AM  26158.20491254  .00000251  00000+0  65141-3 0  9992",
    "line2": "2 48077  87.8949 322.2099 0001914  96.2992 263.8355 13.13469939250997"
  },
  {
    "name": "ONEWEB-0176",
    "noradId": "48210",
    "line1": "1 48210U 21031A   26157.67474106  .00000209  00000+0  52871-3 0  9994",
    "line2": "2 48210  87.8947 291.7949 0001724 101.1405 258.9918 13.14502211246933"
  },
  {
    "name": "ONEWEB-0184",
    "noradId": "48211",
    "line1": "1 48211U 21031B   26158.10448005 -.00000134  00000+0 -39623-3 0  9992",
    "line2": "2 48211  87.8964 291.7095 0001153 116.4148 243.7100 13.14502066246960"
  },
  {
    "name": "ONEWEB-0179",
    "noradId": "48212",
    "line1": "1 48212U 21031C   26157.63598365  .00000192  00000+0  57980-4 0  9994",
    "line2": "2 48212  87.8980 289.5125 0218832 291.9898  65.8172 14.25516351247545"
  },
  {
    "name": "ONEWEB-0180",
    "noradId": "48213",
    "line1": "1 48213U 21031D   26158.10765630  .00000015  00000+0  67031-5 0  9992",
    "line2": "2 48213  87.8958 291.7051 0001970 113.7298 246.4039 13.14502387246899"
  },
  {
    "name": "ONEWEB-0218",
    "noradId": "48214",
    "line1": "1 48214U 21031E   26158.12985665  .00000201  00000+0  50866-3 0  9990",
    "line2": "2 48214  87.8961 291.6996 0001381 126.3440 233.7818 13.14501221247055"
  },
  {
    "name": "ONEWEB-0209",
    "noradId": "48215",
    "line1": "1 48215U 21031F   26158.11874678  .00000207  00000+0  52489-3 0  9990",
    "line2": "2 48215  87.8951 291.7198 0002000 106.0563 254.0787 13.14504676247058"
  }
]